NORAD_CAT_ID,OBJECT_NAME,OBJECT_TYPE,EPOCH,MEAN_MOTION,ECCENTRICITY,INCLINATION,RA_OF_ASC_NODE,ARG_OF_PERICENTER,MEAN_ANOMALY,BSTAR,MEAN_MOTION_DOT,MEAN_MOTION_DDOT,TLE_LINE0,TLE_LINE1,TLE_LINE2,SEMIMAJOR_AXIS,PERIOD,APOGEE,PERIGEE,DECAYED
53286.0,STARLINK-4165,PAYLOAD,2023-05-29 01:47:22,15.0884341,0.000123,53.2178,63.4046,101.8613,258.2517,0.00012043,1.629e-05,0.0,0 STARLINK-4165,1 53286U 22086AW  23149.07456574  .00001629  00000-0  12043-3 0  9990,2 53286  53.2178  63.4046 0001230 101.8613 258.2517 15.08843410 47860,6917.87,95.437,540.586,538.884,0.0
53286.0,STARLINK-4165,PAYLOAD,2023-05-29 17:41:14,15.08836513,0.0001211,53.2178,60.431,97.1003,263.0127,9.9371e-05,1.294e-05,0.0,0 STARLINK-4165,1 53286U 22086AW  23149.73697161  .00001294  00000-0  99371-4 0  9990,2 53286  53.2178  60.4310 0001211  97.1003 263.0127 15.08836513 47801,6917.891,95.438,540.594,538.918,0.0
53286.0,STARLINK-4165,PAYLOAD,2023-05-30 03:13:33,15.08837418,0.0001228,53.2182,58.6462,90.7815,269.3318,7.8615e-05,9.63e-06,0.0,0 STARLINK-4165,1 53286U 22086AW  23150.13441308  .00000963  00000-0  78615-4 0  9996,2 53286  53.2182  58.6462 0001228  90.7815 269.3318 15.08837418 48022,6917.888,95.438,540.603,538.904,0.0
53286.0,STARLINK-4165,PAYLOAD,2023-05-30 22:18:10,15.08842261,0.000123,53.218,55.077,88.9737,271.1396,5.5003e-05,5.88e-06,0.0,0 STARLINK-4165,1 53286U 22086AW  23150.92929095  .00000588  00000-0  55003-4 0  9996,2 53286  53.2180  55.0770 0001230  88.9737 271.1396 15.08842261 48140,6917.873,95.437,540.589,538.888,0.0
53286.0,STARLINK-4165,PAYLOAD,2023-05-30 23:53:33,15.08843886,0.0001247,53.2177,54.7796,89.1682,270.9453,6.7698e-05,7.9e-06,0.0,0 STARLINK-4165,1 53286U 22086AW  23150.99552943  .00000790  00000-0  67698-4 0  9995,2 53286  53.2177  54.7796 0001247  89.1682 270.9453 15.08843886 47997,6917.869,95.437,540.596,538.871,0.0
53286.0,STARLINK-4165,PAYLOAD,2023-05-31 03:04:19,15.08848462,0.0001278,53.2176,54.1846,89.7068,270.407,0.0001047,1.379e-05,0.0,0 STARLINK-4165,1 53286U 22086AW  23151.12800556  .00001379  00000-0  10470-3 0  9996,2 53286  53.2176  54.1846 0001278  89.7068 270.4070 15.08848462 48170,6917.855,95.437,540.604,538.835,0.0
53286.0,STARLINK-4165,PAYLOAD,2023-05-31 22:08:57,15.08842697,0.0001257,53.2178,50.6158,90.6501,269.4635,9.5527e-05,1.233e-05,0.0,0 STARLINK-4165,1 53286U 22086AW  23151.92288818  .00001233  00000-0  95527-4 0  9991,2 53286  53.2178  50.6158 0001257  90.6501 269.4635 15.08842697 48291,6917.872,95.437,540.607,538.868,0.0
53286.0,STARLINK-4165,PAYLOAD,2023-06-01 02:55:06,15.08847917,0.0001346,53.2183,49.7212,103.4331,256.6811,8.1991e-05,1.017e-05,0.0,0 STARLINK-4165,1 53286U 22086AW  23152.12160437  .00001017  00000-0  81991-4 0  9990,2 53286  53.2183  49.7212 0001346 103.4331 256.6811 15.08847917 48328,6917.856,95.437,540.652,538.79,0.0
53286.0,STARLINK-4165,PAYLOAD,2023-06-02 02:45:54,15.08838503,0.0001298,53.2183,45.2613,103.8649,256.2487,4.1466e-05,3.72e-06,0.0,0 STARLINK-4165,1 53286U 22086AW  23153.11520971  .00000372  00000-0  41466-4 0  9999,2 53286  53.2183  45.2613 0001298 103.8649 256.2487 15.08838503 48311,6917.885,95.438,540.648,538.852,0.0
53286.0,STARLINK-4165,PAYLOAD,2023-06-02 17:04:22,15.08874162,0.0001095,53.2181,42.5845,113.5141,246.5966,-0.00051692,-8.513e-05,0.0,0 STARLINK-4165,1 53286U 22086AW  23153.71137069 -.00008513  00000-0 -51692-3 0  9995,2 53286  53.2181  42.5845 0001095 113.5141 246.5966 15.08874162 48401,6917.776,95.435,540.398,538.883,0.0
53286.0,STARLINK-4165,PAYLOAD,2023-06-02 21:50:32,15.08833808,0.0001233,53.2179,41.6933,102.6438,257.4692,-7.3132e-05,-1.451e-05,0.0,0 STARLINK-4165,1 53286U 22086AW  23153.91009737 -.00001451  00000-0 -73132-4 0  9995,2 53286  53.2179  41.6933 0001233 102.6438 257.4692 15.08833808 48597,6917.899,95.438,540.617,538.911,0.0
53286.0,STARLINK-4165,PAYLOAD,2023-06-03 02:36:41,15.08837728,0.000112,53.2171,40.8044,91.5032,268.6089,-5.5915e-05,-1.178e-05,0.0,0 STARLINK-4165,1 53286U 22086AW  23154.10881502 -.00001178  00000-0 -55915-4 0  9990,2 53286  53.2171  40.8044 0001120  91.5032 268.6089 15.08837728 48469,6917.887,95.438,540.527,538.978,0.0
53286.0,STARLINK-4165,PAYLOAD,2023-06-03 21:41:19,15.08838591,0.0001055,53.2173,37.2365,95.235,264.8763,3.7419e-05,3.08e-06,0.0,0 STARLINK-4165,1 53286U 22086AW  23154.90369445  .00000308  00000-0  37419-4 0  9996,2 53286  53.2173  37.2365 0001055  95.2350 264.8763 15.08838591 48745,6917.885,95.438,540.48,539.02,0.0
53286.0,STARLINK-4165,PAYLOAD,2023-06-04 00:52:05,15.08847891,0.0001035,53.2173,36.6416,95.0008,265.1102,1.6791e-05,-2e-07,0.0,0 STARLINK-4165,1 53286U 22086AW  23155.03616974 -.00000020  00000-0  16791-4 0  9995,2 53286  53.2173  36.6416 0001035  95.0008 265.1102 15.08847891 48600,6917.856,95.437,540.437,539.005,0.0
53286.0,STARLINK-4165,PAYLOAD,2023-06-04 19:56:43,15.08834964,0.0001146,53.2179,33.0742,94.8817,265.2306,8.8012e-05,1.113e-05,0.0,0 STARLINK-4165,1 53286U 22086AW  23155.83105823  .00001113  00000-0  88012-4 0  9997,2 53286  53.2179  33.0742 0001146  94.8817 265.2306 15.08834964 48724,6917.896,95.438,540.554,538.968,0.0
53286.0,STARLINK-4165,PAYLOAD,2023-06-04 21:32:06,15.08836056,0.0001154,53.2179,32.7769,94.9166,265.1958,9.5714e-05,1.236e-05,0.0,0 STARLINK-4165,1 53286U 22086AW  23155.89729755  .00001236  00000-0  95714-4 0  9992,2 53286  53.2179  32.7769 0001154  94.9166 265.1958 15.08836056 48890,6917.892,95.438,540.556,538.959,0.0
53286.0,STARLINK-4165,PAYLOAD,2023-06-05 02:18:15,15.08842922,0.0001025,53.2171,31.884,90.2729,269.8381,0.00014719,2.056e-05,0.0,0 STARLINK-4165,1 53286U 22086AW  23156.09601226  .00002056  00000-0  14719-3 0  9993,2 53286  53.2171  31.8840 0001025  90.2729 269.8381 15.08842922 48769,6917.871,95.437,540.446,539.027,0.0
53286.0,STARLINK-4165,PAYLOAD,2023-06-05 19:47:30,15.08842412,0.0001256,53.2188,28.6153,101.5476,258.5658,3.1091e-05,2.07e-06,0.0,0 STARLINK-4165,1 53286U 22086AW  23156.82465749  .00000207  00000-0  31091-4 0  9991,2 53286  53.2188  28.6153 0001256 101.5476 258.5658 15.08842412 49036,6917.873,95.437,540.607,538.869,0.0
53286.0,STARLINK-4165,PAYLOAD,2023-06-06 00:33:39,15.08845421,0.0001201,53.2177,27.7218,99.1848,260.928,7.468e-05,9.01e-06,0.0,0 STARLINK-4165,1 53286U 22086AW  23157.02337339  .00000901  00000-0  74680-4 0  9999,2 53286  53.2177  27.7218 0001201  99.1848 260.9280 15.08845421 49065,6917.864,95.437,540.56,538.898,0.0
53286.0,STARLINK-4165,PAYLOAD,2023-06-06 18:02:54,15.08841173,0.0001152,53.2171,24.4498,87.0936,273.0188,2.338e-05,8.4e-07,0.0,0 STARLINK-4165,1 53286U 22086AW  23157.75201808  .00000084  00000-0  23380-4 0  9993,2 53286  53.2171  24.4498 0001152  87.0936 273.0188 15.08841173 49019,6917.877,95.437,540.539,538.945,0.0
53286.0,STARLINK-4165,PAYLOAD,2023-06-07 00:24:26,15.08847731,0.0001169,53.218,23.2601,87.9365,272.1761,6.812e-05,7.97e-06,0.0,0 STARLINK-4165,1 53286U 22086AW  23158.01697206  .00000797  00000-0  68120-4 0  9996,2 53286  53.2180  23.2601 0001169  87.9365 272.1761 15.08847731 49052,6917.857,95.437,540.53,538.913,0.0
53286.0,STARLINK-4165,PAYLOAD,2023-06-07 01:59:49,15.08849232,0.0001129,53.2179,22.9637,90.1456,269.9665,9.5049e-05,1.226e-05,0.0,0 STARLINK-4165,1 53286U 22086AW  23158.08321078  .00001226  00000-0  95049-4 0  9992,2 53286  53.2179  22.9637 0001129  90.1456 269.9665 15.08849232 49222,6917.852,95.437,540.498,538.936,0.0
53286.0,STARLINK-4165,PAYLOAD,2023-06-07 17:53:41,15.08836449,0.0001479,53.2174,19.9939,66.842,293.2728,4.0248e-06,-2.24e-06,0.0,0 STARLINK-4165,1 53286U 22086AW  23158.74562430 -.00000224  00000-0  40248-5 0  9994,2 53286  53.2174  19.9939 0001479  66.8420 293.2728 15.08836449 49166,6917.891,95.438,540.779,538.733,0.0
53286.0,STARLINK-4165,PAYLOAD,2023-06-07 21:04:27,15.08839385,0.0001231,53.2173,19.3953,85.9299,274.1834,1.6548e-05,-2.4e-07,0.0,0 STARLINK-4165,1 53286U 22086AW  23158.87810117 -.00000024  00000-0  16548-4 0  9999,2 53286  53.2173  19.3953 0001231  85.9299 274.1834 15.08839385 49345,6917.882,95.438,540.599,538.896,0.0
53286.0,STARLINK-4165,PAYLOAD,2023-06-08 14:33:42,15.08841627,0.0001226,53.218,16.1255,84.6951,275.4181,9.9034e-05,1.289e-05,0.0,0 STARLINK-4165,1 53286U 22086AW  23159.60673796  .00001289  00000-0  99034-4 0  9995,2 53286  53.2180  16.1255 0001226  84.6951 275.4181 15.08841627 49451,6917.875,95.437,540.589,538.892,0.0
53286.0,STARLINK-4165,PAYLOAD,2023-06-09 00:06:00,15.08852079,0.0001145,53.2177,14.3384,91.3982,268.7141,0.00011673,1.571e-05,0.0,0 STARLINK-4165,1 53286U 22086AW  23160.00417054  .00001571  00000-0  11673-3 0  9990,2 53286  53.2177  14.3384 0001145  91.3982 268.7141 15.08852079 49352,6917.843,95.437,540.501,538.916,0.0
53286.0,STARLINK-4165,PAYLOAD,2023-06-09 14:24:29,15.08835757,0.0001324,53.2173,11.6604,101.2053,258.9088,0.00010197,1.335e-05,0.0,0 STARLINK-4165,1 53286U 22086AW  23160.60034135  .00001335  00000-0  10197-3 0  9999,2 53286  53.2173  11.6604 0001324 101.2053 258.9088 15.08835757 49605,6917.893,95.438,540.674,538.842,0.0
53286.0,STARLINK-4165,PAYLOAD,2023-06-09 20:46:01,15.08848035,0.0001344,53.2165,10.469,105.3776,254.7364,5.2989e-05,5.56e-06,0.0,0 STARLINK-4165,1 53286U 22086AW  23160.86529536  .00000556  00000-0  52989-4 0  9991,2 53286  53.2165  10.4690 0001344 105.3776 254.7364 15.08848035 49645,6917.856,95.437,540.651,538.791,0.0
53286.0,STARLINK-4165,PAYLOAD,2023-06-09 23:56:47,15.08844879,0.000108,53.2172,9.8791,86.4663,273.6452,0.00010923,1.451e-05,0.0,0 STARLINK-4165,1 53286U 22086AW  23160.99777560  .00001451  00000-0  10923-3 0  9993,2 53286  53.2172   9.8791 0001080  86.4663 273.6452 15.08844879 49503,6917.865,95.437,540.478,538.983,0.0
53286.0,STARLINK-4165,PAYLOAD,2023-06-10 14:15:16,15.08837591,0.0001121,53.2181,7.2027,87.6439,272.4681,-3.0397e-05,-7.71e-06,0.0,0 STARLINK-4165,1 53286U 22086AW  23161.59394477 -.00000771  00000-0 -30397-4 0  9996,2 53286  53.2181   7.2027 0001121  87.6439 272.4681 15.08837591 49758,6917.888,95.438,540.528,538.977,0.0
